[{"CCSDS_OMM_VERS":"2.0","COMMENT":"GENERATED VIA SPACE-TRACK.ORG API","CREATION_DATE":"2021-11-04T17:50:53","ORIGINATOR":"18 SPCS","OBJECT_NAME":"TBA - TO BE ASSIGNED","OBJECT_ID":"","CENTER_NAME":"EARTH","REF_FRAME":"TEME","TIME_SYSTEM":"UTC","MEAN_ELEMENT_THEORY":"SGP4","EPOCH":"2021-11-04T05:02:05.063712","MEAN_MOTION":"13.51953525","ECCENTRICITY":"0.01130750","INCLINATION":"99.5123","RA_OF_ASC_NODE":"45.1608","ARG_OF_PERICENTER":"117.9189","MEAN_ANOMALY":"243.3450","EPHEMERIS_TYPE":"0","CLASSIFICATION_TYPE":"U","NORAD_CAT_ID":"82311","ELEMENT_SET_NO":"999","REV_AT_EPOCH":"34752","BSTAR":"0.00080861000000","MEAN_MOTION_DOT":"0.00000511","MEAN_MOTION_DDOT":"0.0000000000000","SEMIMAJOR_AXIS":"7443.217","PERIOD":"106.513","APOAPSIS":"1149.246","PERIAPSIS":"980.918","OBJECT_TYPE":"TBA","RCS_SIZE":null,"COUNTRY_CODE":null,"LAUNCH_DATE":null,"SITE":null,"DECAY_DATE":null,"FILE":"3200777","GP_ID":"188873933","TLE_LINE0":"0 TBA - TO BE ASSIGNED","TLE_LINE1":"1 82311U          21308.20978083 +.00000511 +00000+0 +80861-3 0  9998","TLE_LINE2":"2 82311  99.5123  45.1608 0113075 117.9189 243.3450 13.51953525347524"},{"CCSDS_OMM_VERS":"2.0","COMMENT":"GENERATED VIA SPACE-TRACK.ORG API","CREATION_DATE":"2021-10-30T18:15:00","ORIGINATOR":"18 SPCS","OBJECT_NAME":"TBA - TO BE ASSIGNED","OBJECT_ID":"","CENTER_NAME":"EARTH","REF_FRAME":"TEME","TIME_SYSTEM":"UTC","MEAN_ELEMENT_THEORY":"SGP4","EPOCH":"2021-10-30T12:18:48.658752","MEAN_MOTION":"15.06378428","ECCENTRICITY":"0.02003590","INCLINATION":"99.2108","RA_OF_ASC_NODE":"38.6754","ARG_OF_PERICENTER":"98.1042","MEAN_ANOMALY":"264.2962","EPHEMERIS_TYPE":"0","CLASSIFICATION_TYPE":"U","NORAD_CAT_ID":"82314","ELEMENT_SET_NO":"999","REV_AT_EPOCH":"31497","BSTAR":"0.00065428000000","MEAN_MOTION_DOT":"0.00015190","MEAN_MOTION_DDOT":"0.0000000000000","SEMIMAJOR_AXIS":"6925.415","PERIOD":"95.594","APOAPSIS":"686.037","PERIAPSIS":"408.523","OBJECT_TYPE":"TBA","RCS_SIZE":null,"COUNTRY_CODE":null,"LAUNCH_DATE":null,"SITE":null,"DECAY_DATE":null,"FILE":"3192902","GP_ID":"188493924","TLE_LINE0":"0 TBA - TO BE ASSIGNED","TLE_LINE1":"1 82314U          21303.51306318 +.00015190 +00000+0 +65428-3 0  9997","TLE_LINE2":"2 82314  99.2108  38.6754 0200359  98.1042 264.2962 15.06378428314974"},{"CCSDS_OMM_VERS":"2.0","COMMENT":"GENERATED VIA SPACE-TRACK.ORG API","CREATION_DATE":"2021-11-04T17:50:53","ORIGINATOR":"18 SPCS","OBJECT_NAME":"TBA - TO BE ASSIGNED","OBJECT_ID":"","CENTER_NAME":"EARTH","REF_FRAME":"TEME","TIME_SYSTEM":"UTC","MEAN_ELEMENT_THEORY":"SGP4","EPOCH":"2021-11-04T06:58:48.988992","MEAN_MOTION":"14.27843012","ECCENTRICITY":"0.01609890","INCLINATION":"99.8544","RA_OF_ASC_NODE":"331.1152","ARG_OF_PERICENTER":"196.9859","MEAN_ANOMALY":"162.5891","EPHEMERIS_TYPE":"0","CLASSIFICATION_TYPE":"U","NORAD_CAT_ID":"82320","ELEMENT_SET_NO":"999","REV_AT_EPOCH":"41383","BSTAR":"0.00058081000000","MEAN_MOTION_DOT":"0.00001592","MEAN_MOTION_DDOT":"0.0000000000000","SEMIMAJOR_AXIS":"7177.087","PERIOD":"100.851","APOAPSIS":"914.495","PERIAPSIS":"683.409","OBJECT_TYPE":"TBA","RCS_SIZE":null,"COUNTRY_CODE":null,"LAUNCH_DATE":null,"SITE":null,"DECAY_DATE":null,"FILE":"3200777","GP_ID":"188874180","TLE_LINE0":"0 TBA - TO BE ASSIGNED","TLE_LINE1":"1 82320U          21308.29084478 +.00001592 +00000+0 +58081-3 0  9992","TLE_LINE2":"2 82320  99.8544 331.1152 0160989 196.9859 162.5891 14.27843012413835"},{"CCSDS_OMM_VERS":"2.0","COMMENT":"GENERATED VIA SPACE-TRACK.ORG API","CREATION_DATE":"2021-11-03T18:02:46","ORIGINATOR":"18 SPCS","OBJECT_NAME":"TBA - TO BE ASSIGNED","OBJECT_ID":"","CENTER_NAME":"EARTH","REF_FRAME":"TEME","TIME_SYSTEM":"UTC","MEAN_ELEMENT_THEORY":"SGP4","EPOCH":"2021-11-03T03:35:36.112128","MEAN_MOTION":"14.51583570","ECCENTRICITY":"0.00765820","INCLINATION":"98.5823","RA_OF_ASC_NODE":"13.1622","ARG_OF_PERICENTER":"359.5362","MEAN_ANOMALY":"0.5748","EPHEMERIS_TYPE":"0","CLASSIFICATION_TYPE":"U","NORAD_CAT_ID":"82322","ELEMENT_SET_NO":"999","REV_AT_EPOCH":"34645","BSTAR":"0.00093064000000","MEAN_MOTION_DOT":"0.00003822","MEAN_MOTION_DDOT":"0.0000000000000","SEMIMAJOR_AXIS":"7098.618","PERIOD":"99.202","APOAPSIS":"774.846","PERIAPSIS":"666.120","OBJECT_TYPE":"TBA","RCS_SIZE":null,"COUNTRY_CODE":null,"LAUNCH_DATE":null,"SITE":null,"DECAY_DATE":null,"FILE":"3199757","GP_ID":"188806328","TLE_LINE0":"0 TBA - TO BE ASSIGNED","TLE_LINE1":"1 82322U          21307.14972352 +.00003822 +00000+0 +93064-3 0  9992","TLE_LINE2":"2 82322  98.5823  13.1622 0076582 359.5362   0.5748 14.51583570346455"},{"CCSDS_OMM_VERS":"2.0","COMMENT":"GENERATED VIA SPACE-TRACK.ORG API","CREATION_DATE":"2021-11-01T19:35:20","ORIGINATOR":"18 SPCS","OBJECT_NAME":"TBA - TO BE ASSIGNED","OBJECT_ID":"","CENTER_NAME":"EARTH","REF_FRAME":"TEME","TIME_SYSTEM":"UTC","MEAN_ELEMENT_THEORY":"SGP4","EPOCH":"2021-11-01T10:43:34.098816","MEAN_MOTION":"8.38580229","ECCENTRICITY":"0.32090640","INCLINATION":"63.7604","RA_OF_ASC_NODE":"120.4769","ARG_OF_PERICENTER":"295.5861","MEAN_ANOMALY":"34.8802","EPHEMERIS_TYPE":"0","CLASSIFICATION_TYPE":"U","NORAD_CAT_ID":"82348","ELEMENT_SET_NO":"999","REV_AT_EPOCH":"24115","BSTAR":"0.00038843000000","MEAN_MOTION_DOT":"0.00000278","MEAN_MOTION_DDOT":"0.0000000000000","SEMIMAJOR_AXIS":"10233.843","PERIOD":"171.719","APOAPSIS":"7139.814","PERIAPSIS":"571.602","OBJECT_TYPE":"TBA","RCS_SIZE":null,"COUNTRY_CODE":null,"LAUNCH_DATE":null,"SITE":null,"DECAY_DATE":null,"FILE":"3196300","GP_ID":"188638467","TLE_LINE0":"0 TBA - TO BE ASSIGNED","TLE_LINE1":"1 82348U          21305.44692244 +.00000278 +00000+0 +38843-3 0  9996","TLE_LINE2":"2 82348  63.7604 120.4769 3209064 295.5861  34.8802  8.38580229241155"},{"CCSDS_OMM_VERS":"2.0","COMMENT":"GENERATED VIA SPACE-TRACK.ORG API","CREATION_DATE":"2021-11-03T18:02:46","ORIGINATOR":"18 SPCS","OBJECT_NAME":"TBA - TO BE ASSIGNED","OBJECT_ID":"","CENTER_NAME":"EARTH","REF_FRAME":"TEME","TIME_SYSTEM":"UTC","MEAN_ELEMENT_THEORY":"SGP4","EPOCH":"2021-11-02T23:58:28.832448","MEAN_MOTION":"13.13794491","ECCENTRICITY":"0.04585110","INCLINATION":"66.9359","RA_OF_ASC_NODE":"161.9597","ARG_OF_PERICENTER":"41.8830","MEAN_ANOMALY":"321.6347","EPHEMERIS_TYPE":"0","CLASSIFICATION_TYPE":"U","NORAD_CAT_ID":"82363","ELEMENT_SET_NO":"999","REV_AT_EPOCH":"9300","BSTAR":"0.00082070000000","MEAN_MOTION_DOT":"0.00000451","MEAN_MOTION_DDOT":"0.0000000000000","SEMIMAJOR_AXIS":"7586.653","PERIOD":"109.606","APOAPSIS":"1556.374","PERIAPSIS":"860.662","OBJECT_TYPE":"TBA","RCS_SIZE":null,"COUNTRY_CODE":null,"LAUNCH_DATE":null,"SITE":null,"DECAY_DATE":null,"FILE":"3199757","GP_ID":"188806287","TLE_LINE0":"0 TBA - TO BE ASSIGNED","TLE_LINE1":"1 82363U          21306.99894482 +.00000451 +00000+0 +82070-3 0  9996","TLE_LINE2":"2 82363  66.9359 161.9597 0458511  41.8830 321.6347 13.13794491 93008"},{"CCSDS_OMM_VERS":"2.0","COMMENT":"GENERATED VIA SPACE-TRACK.ORG API","CREATION_DATE":"2021-11-04T17:50:53","ORIGINATOR":"18 SPCS","OBJECT_NAME":"TBA - TO BE ASSIGNED","OBJECT_ID":"1999-025","CENTER_NAME":"EARTH","REF_FRAME":"TEME","TIME_SYSTEM":"UTC","MEAN_ELEMENT_THEORY":"SGP4","EPOCH":"2021-11-04T01:01:35.428224","MEAN_MOTION":"13.97033121","ECCENTRICITY":"0.00849060","INCLINATION":"99.0379","RA_OF_ASC_NODE":"338.8579","ARG_OF_PERICENTER":"150.2812","MEAN_ANOMALY":"210.3213","EPHEMERIS_TYPE":"0","CLASSIFICATION_TYPE":"U","NORAD_CAT_ID":"82369","ELEMENT_SET_NO":"999","REV_AT_EPOCH":"34770","BSTAR":"0.00000434600000","MEAN_MOTION_DOT":"-0.00000037","MEAN_MOTION_DDOT":"0.0000000000000","SEMIMAJOR_AXIS":"7282.224","PERIOD":"103.076","APOAPSIS":"965.920","PERIAPSIS":"842.259","OBJECT_TYPE":"TBA","RCS_SIZE":null,"COUNTRY_CODE":null,"LAUNCH_DATE":null,"SITE":null,"DECAY_DATE":null,"FILE":"3200777","GP_ID":"188874027","TLE_LINE0":"0 TBA - TO BE ASSIGNED","TLE_LINE1":"1 82369U 99025    21308.04277116 -.00000037 +00000+0 +43460-5 0  9997","TLE_LINE2":"2 82369  99.0379 338.8579 0084906 150.2812 210.3213 13.97033121347709"},{"CCSDS_OMM_VERS":"2.0","COMMENT":"GENERATED VIA SPACE-TRACK.ORG API","CREATION_DATE":"2021-11-04T17:50:53","ORIGINATOR":"18 SPCS","OBJECT_NAME":"TBA - TO BE ASSIGNED","OBJECT_ID":"","CENTER_NAME":"EARTH","REF_FRAME":"TEME","TIME_SYSTEM":"UTC","MEAN_ELEMENT_THEORY":"SGP4","EPOCH":"2021-11-03T23:48:05.177376","MEAN_MOTION":"14.39027890","ECCENTRICITY":"0.00178900","INCLINATION":"98.4885","RA_OF_ASC_NODE":"141.4680","ARG_OF_PERICENTER":"48.7302","MEAN_ANOMALY":"311.5423","EPHEMERIS_TYPE":"0","CLASSIFICATION_TYPE":"U","NORAD_CAT_ID":"82381","ELEMENT_SET_NO":"999","REV_AT_EPOCH":"29309","BSTAR":"0.00092470000000","MEAN_MOTION_DOT":"0.00002818","MEAN_MOTION_DDOT":"0.0000000000000","SEMIMAJOR_AXIS":"7139.849","PERIOD":"100.068","APOAPSIS":"774.487","PERIAPSIS":"748.941","OBJECT_TYPE":"TBA","RCS_SIZE":null,"COUNTRY_CODE":null,"LAUNCH_DATE":null,"SITE":null,"DECAY_DATE":null,"FILE":"3200777","GP_ID":"188873871","TLE_LINE0":"0 TBA - TO BE ASSIGNED","TLE_LINE1":"1 82381U          21307.99172659 +.00002818 +00000+0 +92470-3 0  9996","TLE_LINE2":"2 82381  98.4885 141.4680 0017890  48.7302 311.5423 14.39027890293094"}]